[{"OBJECT_NAME":"STARLINK-5764","OBJECT_ID":"2023-020AK","EPOCH":"2026-03-08T05:18:37.359072","MEAN_MOTION":15.02595794,"ECCENTRICITY":0.00010779,"INCLINATION":43.0041,"RA_OF_ASC_NODE":0.0348,"ARG_OF_PERICENTER":296.8029,"MEAN_ANOMALY":63.2703,"EPHEMERIS_TYPE":0,"CLASSIFICATION_TYPE":"U","NORAD_CAT_ID":55602,"ELEMENT_SET_NO":999,"REV_AT_EPOCH":16884,"BSTAR":0.00046910374,"MEAN_MOTION_DOT":6.149e-5,"MEAN_MOTION_DDOT":0},{"OBJECT_NAME":"OBJECT J","OBJECT_ID":"2025-292J","EPOCH":"2026-03-09T21:49:22.925568","MEAN_MOTION":15.05538385,"ECCENTRICITY":0.00147146,"INCLINATION":97.6397,"RA_OF_ASC_NODE":145.6338,"ARG_OF_PERICENTER":337.2811,"MEAN_ANOMALY":22.7762,"EPHEMERIS_TYPE":0,"CLASSIFICATION_TYPE":"U","NORAD_CAT_ID":67001,"ELEMENT_SET_NO":999,"REV_AT_EPOCH":1350,"BSTAR":0.00042553792,"MEAN_MOTION_DOT":6.079e-5,"MEAN_MOTION_DDOT":0}]
